STARLINK-4175           
1 53283U 22086AT  24088.91409722  .00008497  00000+0  55098-3 0  9992
2 53283  53.2136 134.9176 0001556  95.7082 264.4088 15.08860834 93896
STARLINK-4172           
1 53284U 22086AU  24088.85522836  .00003979  00000+0  26786-3 0  9990
2 53284  53.2146 135.1816 0000975  95.9577 264.1527 15.08848733 93885
STARLINK-4173           
1 53285U 22086AV  24088.83682042  .00007006  00000+0  45769-3 0  9992
2 53285  53.2146 135.2612 0000754 108.9308 251.1766 15.08851620 93872
STARLINK-4165           
1 53286U 22086AW  24088.54974215  .00003366  00000+0  22946-3 0  9994
2 53286  53.2163 136.2427 0001571 102.7756 257.3412 15.08843374 93833
STARLINK-4107           
1 53287U 22086AX  24088.82946137  .00004182  00000+0  28057-3 0  9994
2 53287  53.2157 135.2945 0001422 101.0601 259.0551 15.08856178 93870
STARLINK-4162           
1 53288U 22086AY  24088.84049599  .00018748  00000+0  11918-2 0  9993
2 53288  53.2149 135.2442 0001358  88.7064 271.4084 15.08874763 93875
STARLINK-4176           
1 53289U 22086AZ  24088.80601563  .00018670  00000+0  11873-2 0  9999
2 53289  53.2147 130.5413 0001442  80.2243 279.8912 15.08862675 93938
STARLINK-4149           
1 53290U 22086BA  24088.83310796  .00008688  00000+0  56274-3 0  9992
2 53290  53.2169 135.2744 0000743  51.2937 308.8122 15.08874863 93875
STARLINK-4166           
1 53291U 22086BB  24088.83909006  .00006159  00000+0  40471-3 0  9994
2 53291  53.2155 130.0393 0001672 109.4955 250.6218 15.08843335 93940
STARLINK-4159           
1 53292U 22086BC  24088.84420653  .00003695  00000+0  25010-3 0  9996
2 53292  53.2179 135.4122 0001389  75.6451 284.4695 15.08844236 93873
STARLINK-4148           
1 53293U 22086BD  24088.79728003  .00002205  00000+0  15674-3 0  9992
2 53293  53.2149 125.4294 0001701  81.3859 278.7325 15.08806874 94002
STARLINK-4146           
1 53294U 22086BE  24088.81562886  .00002634  00000+0  18352-3 0  9993
2 53294  53.2168 125.1886 0001598  66.7911 293.3249 15.08847227 94058
STARLINK-4522           
1 53388U 22097A   24088.23881511  .00004439  00000+0  29672-3 0  9996
2 53388  53.2178  77.9405 0002240  98.1093 262.0153 15.08857026 91444
STARLINK-4523           
1 53389U 22097B   24088.96011354  .00021513  00000+0  13645-2 0  9991
2 53389  53.2167  74.7050 0001606  97.9183 262.1991 15.08870134 91374
STARLINK-4517           
1 53390U 22097C   24088.36761560  .00010783  00000+0  69410-3 0  9997
2 53390  53.2163  77.3641 0001515  90.3773 269.7393 15.08862906 91432
STARLINK-4521           
1 53391U 22097D   24088.95642110 -.00005018  00000+0 -29741-3 0  9992
2 53391  53.2171  74.7251 0001584  86.3765 273.7408 15.08839581 91370
STARLINK-4535           
1 53392U 22097E   24088.94906674  .00003595  00000+0  24386-3 0  9996
2 53392  53.2156  74.7570 0001591  87.5034 272.6140 15.08839397 91374
STARLINK-4530           
1 53393U 22097F   24088.95274005  .00002545  00000+0  17790-3 0  9999
2 53393  53.2169  74.7385 0001542  99.3922 260.7245 15.08843718 91372
STARLINK-4544           
1 53394U 22097G   24088.96465147 -.00000112  00000+0  11056-4 0  9999
2 53394  53.2165  64.2971 0001625  89.6183 270.4995 15.08843572 91522
STARLINK-4534           
1 53395U 22097H   24088.94633285  .00016892  00000+0  10773-2 0  9992
2 53395  53.2158  74.7811 0001247  91.4900 268.6235 15.08825246 91212
STARLINK-4524           
1 53396U 22097J   24088.66570083  .00004483  00000+0  29957-3 0  9996
2 53396  53.2160  76.0304 0001394  93.5668 266.5484 15.08841495 91177
STARLINK-4515           
1 53397U 22097K   24088.94170060  .00002977  00000+0  20499-3 0  9997
2 53397  53.2164  74.7918 0002464  85.2430 274.8843 15.08856690 91211
STARLINK-4512           
1 53398U 22097L   24088.65833755  .00010435  00000+0  67216-3 0  9999
2 53398  53.2166  76.0632 0001478 102.4353 257.6804 15.08873328 91170
STARLINK-4528           
1 53399U 22097M   24088.33817922  .00007160  00000+0  46723-3 0  9994
2 53399  53.2157  77.4995 0001374  91.8049 268.3100 15.08862195 91129
STARLINK-4520           
1 53400U 22097N   24088.38233443  .00009596  00000+0  61985-3 0  9994
2 53400  53.2160  77.2986 0001308 100.9036 259.2103 15.08861115 91133
STARLINK-4525           
1 53401U 22097P   24088.66203633  .00034746  00000+0  21920-2 0  9993
2 53401  53.2160  76.0459 0001258  87.6658 272.4478 15.08815343 91179
STARLINK-4499           
1 53402U 22097Q   24088.37866396  .00001386  00000+0  10515-3 0  9996
2 53402  53.2189  77.3161 0001742 117.5302 242.5867 15.08834072 91138
STARLINK-4507           
1 53403U 22097R   24088.95374092  .00017683  00000+0  11253-2 0  9994
2 53403  53.2170  75.0798 0003582  89.3698 270.7705 15.08872350 91212
STARLINK-4509           
1 53404U 22097S   24088.95828784 -.00000277  00000+0  66401-6 0  9998
2 53404  53.2158  64.6476 0001247  92.9573 267.1562 15.08842200 91351
STARLINK-4510           
1 53405U 22097T   24088.97113851  .00000911  00000+0  75335-4 0  9991
2 53405  53.2177  74.6542 0001587 101.4092 258.7078 15.08850779 91221
STARLINK-4533           
1 53406U 22097U   24088.94630548  .00017549  00000+0  11177-2 0  9993
2 53406  53.2173  64.7680 0001267  76.4443 283.6691 15.08848792 91351
STARLINK-4537           
1 53407U 22097V   24088.29221210  .00006238  00000+0  40954-3 0  9993
2 53407  53.2175  57.9401 0001355  85.0898 275.0249 15.08853532 91393
STARLINK-4491           
1 53408U 22097W   24088.95734425  .00005670  00000+0  37393-3 0  9996
2 53408  53.2179  64.7240 0001182  80.9680 279.1446 15.08852205 91352
STARLINK-4490           
1 53409U 22097X   24088.28852084  .00023853  00000+0  15107-2 0  9996
2 53409  53.2170  57.9180 0001442  88.1955 271.9203 15.08864319 91399
STARLINK-4492           
1 53410U 22097Y   24088.95364804  .00014324  00000+0  91553-3 0  9993
2 53410  53.2181  64.7357 0001163 102.2498 257.8625 15.08867853 91358
STARLINK-4497           
1 53411U 22097Z   24088.96102382  .00000315  00000+0  37864-4 0  9997
2 53411  53.2171  64.7049 0001284 103.5715 256.5420 15.08844409 91357
STARLINK-4496           
1 53412U 22097AA  24088.94262172  .00002594  00000+0  18098-3 0  9998
2 53412  53.2178  64.7792 0001958 107.6989 252.4217 15.08843169 91357
STARLINK-4500           
1 53413U 22097AB  24088.94997849  .00004331  00000+0  28993-3 0  9991
2 53413  53.2181  64.7508 0001610  95.2968 264.8208 15.08852172 91352
STARLINK-4304           
1 53414U 22097AC  24088.67397961  .00010250  00000+0  66101-3 0  9991
2 53414  53.2165  65.9914 0001897  89.4673 270.6537 15.08848458 91301
STARLINK-4479           
1 53415U 22097AD  24088.67030613  .00022251  00000+0  14117-2 0  9993
2 53415  53.2165  66.0075 0001870  86.7344 273.3862 15.08840230 91286
STARLINK-4480           
1 53416U 22097AE  24088.78803853  .00005927  00000+0  38981-3 0  9997
2 53416  53.2168  65.4299 0001274  91.1351 268.9787 15.08873282 91309
STARLINK-4484           
1 53417U 22097AF  24088.93157738 -.00005107  00000+0 -30307-3 0  9995
2 53417  53.2174  64.8321 0001294 124.7253 235.3861 15.08834901 91320
STARLINK-4481           
1 53418U 22097AG  24088.89195549  .00014258  00000+0  91114-3 0  9991
2 53418  53.2170  54.5815 0001549  93.0556 267.0614 15.08877967 91493
STARLINK-4476           
1 53419U 22097AH  24088.92789936 -.00001406  00000+0 -70245-4 0  9991
2 53419  53.2160  64.8546 0001780  81.8290 278.2904 15.08846840 91329
STARLINK-4552           
1 53420U 22097AJ  24088.32070052  .00002532  00000+0  17707-3 0  9991
2 53420  53.2166  67.5787 0001636  87.6687 272.4492 15.08849861 91232
STARLINK-4545           
1 53421U 22097AK  24088.65926227  .00003333  00000+0  22738-3 0  9992
2 53421  53.2186  66.0523 0001204 102.6611 257.4516 15.08843587 91287
STARLINK-4546           
1 53422U 22097AL  24088.37957711  .00005751  00000+0  37893-3 0  9998
2 53422  53.2161  67.3141 0001349 104.4481 255.6661 15.08859016 91269
STARLINK-4539           
1 53423U 22097AM  24088.32533727 -.00002569  00000+0 -14334-3 0  9992
2 53423  53.2163  67.5675 0001521  81.4295 278.6870 15.08848690 91235
STARLINK-4532           
1 53424U 22097AN  24088.96836894  .00015989  00000+0  10194-2 0  9991
2 53424  53.2178  64.6717 0002259 103.2495 256.8749 15.08875551 91353
STARLINK-4531           
1 53425U 22097AP  24088.31701793  .00002624  00000+0  18284-3 0  9991
2 53425  53.2163  67.5951 0001318  95.5869 264.5274 15.08847535 91229
STARLINK-4558           
1 53426U 22097AQ  24088.61603561  .00003983  00000+0  26813-3 0  9995
2 53426  53.2180  56.4068 0001223  89.2939 270.8193 15.08852917 91431
STARLINK-4541           
1 53427U 22097AR  24088.30965844  .00013147  00000+0  84263-3 0  9993
2 53427  53.2171  67.6283 0001332  96.1675 263.9469 15.08837136 91255
STARLINK-4540           
1 53428U 22097AS  24088.93985928 -.00014596  00000+0 -90149-3 0  9999
2 53428  53.2186  54.8759 0001604  97.3609 262.7565 15.08813339 91488
STARLINK-4543           
1 53429U 22097AT  24088.61235109  .00024091  00000+0  15256-2 0  9998
2 53429  53.2177  56.3849 0001200  91.8446 268.2683 15.08863044 91431
STARLINK-4538           
1 53430U 22097AU  24088.60498412  .00003547  00000+0  24076-3 0  9991
2 53430  53.2186  56.3399 0001491  94.8782 265.2381 15.08850696 90958
STARLINK-4548           
1 53431U 22097AV  24088.89565594 -.00000666  00000+0 -23736-4 0  9993
2 53431  53.2176  54.6090 0001090  98.3523 261.7592 15.08841337 91480
STARLINK-4557           
1 53432U 22097AW  24088.91039063  .00002741  00000+0  19017-3 0  9994
2 53432  53.2172  54.6913 0001194  85.2694 274.8435 15.08850509 91482
STARLINK-4549           
1 53433U 22097AX  24088.93249390 -.00012869  00000+0 -79224-3 0  9993
2 53433  53.2178  54.8264 0001360  69.1084 291.0054 15.08826036 91463
STARLINK-4498           
1 53434U 22097AY  24088.90670149  .00000118  00000+0  25502-4 0  9994
2 53434  53.2180  54.6738 0001312  88.8715 271.2427 15.08852668 91494
